[{"OBJECT_NAME":"STARLINK-34679","OBJECT_ID":"2025-194J","EPOCH":"2026-03-09T21:50:23.040096","MEAN_MOTION":15.0564755,"ECCENTRICITY":0.0002279,"INCLINATION":97.6021,"RA_OF_ASC_NODE":284.6549,"ARG_OF_PERICENTER":80.433,"MEAN_ANOMALY":279.7154,"EPHEMERIS_TYPE":0,"CLASSIFICATION_TYPE":"U","NORAD_CAT_ID":65442,"ELEMENT_SET_NO":999,"REV_AT_EPOCH":2968,"BSTAR":-0.00048236356,"MEAN_MOTION_DOT":-7.014e-5,"MEAN_MOTION_DDOT":0},{"OBJECT_NAME":"FENGYUN 1C DEB","OBJECT_ID":"1999-025EGV","EPOCH":"2026-02-28T16:17:34.017216","MEAN_MOTION":14.9983724,"ECCENTRICITY":0.01801634,"INCLINATION":98.631,"RA_OF_ASC_NODE":214.8944,"ARG_OF_PERICENTER":42.5154,"MEAN_ANOMALY":318.9857,"EPHEMERIS_TYPE":0,"CLASSIFICATION_TYPE":"U","NORAD_CAT_ID":37427,"ELEMENT_SET_NO":999,"REV_AT_EPOCH":61490,"BSTAR":0.00040638516,"MEAN_MOTION_DOT":7.014e-5,"MEAN_MOTION_DDOT":0}]
